{
  "type": "FeatureCollection",
  "features": [
    {
      "type": "Feature",
      "properties": {
        "norad_id": 31737,
        "name": "FENGYUN 1C DEB",
        "group": "fengyun-1c-debris",
        "lat": -22.020698307175362,
        "lon": -168.30473447502644,
        "alt_km": 773.9301682099194,
        "timestamp": "2025-12-07T05:38:10.187911+00:00",
        "meta_object_name": "FENGYUN 1C DEB",
        "meta_object_id": "1999-025CEL",
        "meta_epoch": "2025-12-05T14:09:40.948992",
        "meta_mean_motion": 14.68657792,
        "meta_eccentricity": 0.01495112,
        "meta_inclination": 97.9177,
        "meta_ra_of_asc_node": 13.3286,
        "meta_arg_of_pericenter": 38.4574,
        "meta_mean_anomaly": 112.2641,
        "meta_ephemeris_type": 0,
        "meta_classification_type": "U",
        "meta_norad_cat_id": 31737,
        "meta_element_set_no": 999,
        "meta_rev_at_epoch": 98094,
        "meta_bstar": 0.001082695,
        "meta_mean_motion_dot": 7.421e-05,
        "meta_mean_motion_ddot": 0,
        "tle_line1": "1 31737U 99025CEL 25339.59005728  .00007421  00000+0  10827-2 0  9997",
        "tle_line2": "2 31737  97.9177  13.3286 0149511  38.4574 112.2641 14.68657792980940"
      },
      "geometry": {
        "type": "Point",
        "coordinates": [
          -168.30473447502644,
          -22.020698307175362
        ]
      }
    },
    {
      "type": "Feature",
      "properties": {
        "norad_id": 31738,
        "name": "FENGYUN 1C DEB",
        "group": "fengyun-1c-debris",
        "lat": 80.59367374182297,
        "lon": -36.36634866363404,
        "alt_km": 733.9792627733796,
        "timestamp": "2025-12-07T05:38:10.187921+00:00",
        "meta_object_name": "FENGYUN 1C DEB",
        "meta_object_id": "1999-025CEM",
        "meta_epoch": "2025-11-17T10:08:15.850752",
        "meta_mean_motion": 13.84884182,
        "meta_eccentricity": 0.03082109,
        "meta_inclination": 99.3633,
        "meta_ra_of_asc_node": 28.6808,
        "meta_arg_of_pericenter": 167.6176,
        "meta_mean_anomaly": 193.2777,
        "meta_ephemeris_type": 0,
        "meta_classification_type": "U",
        "meta_norad_cat_id": 31738,
        "meta_element_set_no": 999,
        "meta_rev_at_epoch": 61907,
        "meta_bstar": 0.0026324864,
        "meta_mean_motion_dot": 4.259e-05,
        "meta_mean_motion_ddot": 0,
        "tle_line1": "1 31738U 99025CEM 25321.42240568  .00004259  00000+0  26325-2 0  9990",
        "tle_line2": "2 31738  99.3633  28.6808 0308210 167.6176 193.2777 13.84884182619073"
      },
      "geometry": {
        "type": "Point",
        "coordinates": [
          -36.36634866363404,
          80.59367374182297
        ]
      }
    },
    {
      "type": "Feature",
      "properties": {
        "norad_id": 31739,
        "name": "FENGYUN 1C DEB",
        "group": "fengyun-1c-debris",
        "lat": 49.41226590883364,
        "lon": 26.28115430160257,
        "alt_km": 755.8542580718113,
        "timestamp": "2025-12-07T05:38:10.187944+00:00",
        "meta_object_name": "FENGYUN 1C DEB",
        "meta_object_id": "1999-025CEN",
        "meta_epoch": "2025-12-04T09:43:16.565376",
        "meta_mean_motion": 14.19211936,
        "meta_eccentricity": 0.0128477,
        "meta_inclination": 98.7488,
        "meta_ra_of_asc_node": 33.8416,
        "meta_arg_of_pericenter": 101.9973,
        "meta_mean_anomaly": 259.5637,
        "meta_ephemeris_type": 0,
        "meta_classification_type": "U",
        "meta_norad_cat_id": 31739,
        "meta_element_set_no": 999,
        "meta_rev_at_epoch": 95368,
        "meta_bstar": 0.00020031,
        "meta_mean_motion_dot": 4.13e-06,
        "meta_mean_motion_ddot": 0,
        "tle_line1": "1 31739U 99025CEN 25338.40505284  .00000413  00000+0  20031-3 0  9993",
        "tle_line2": "2 31739  98.7488  33.8416 0128477 101.9973 259.5637 14.19211936953688"
      },
      "geometry": {
        "type": "Point",
        "coordinates": [
          26.28115430160257,
          49.41226590883364
        ]
      }
    },
    {
      "type": "Feature",
      "properties": {
        "norad_id": 31740,
        "name": "FENGYUN 1C DEB",
        "group": "fengyun-1c-debris",
        "lat": -79.9737401669721,
        "lon": -129.80518578568214,
        "alt_km": 776.0891197240126,
        "timestamp": "2025-12-07T05:38:10.187956+00:00",
        "meta_object_name": "FENGYUN 1C DEB",
        "meta_object_id": "1999-025CEP",
        "meta_epoch": "2025-12-06T05:53:41.313120",
        "meta_mean_motion": 14.42079625,
        "meta_eccentricity": 0.00243486,
        "meta_inclination": 99.8208,
        "meta_ra_of_asc_node": 150.613,
        "meta_arg_of_pericenter": 87.512,
        "meta_mean_anomaly": 91.8114,
        "meta_ephemeris_type": 0,
        "meta_classification_type": "U",
        "meta_norad_cat_id": 31740,
        "meta_element_set_no": 999,
        "meta_rev_at_epoch": 64981,
        "meta_bstar": 0.0024371196,
        "meta_mean_motion_dot": 7.991e-05,
        "meta_mean_motion_ddot": 0,
        "tle_line1": "1 31740U 99025CEP 25340.24561705  .00007991  00000+0  24371-2 0  9998",
        "tle_line2": "2 31740  99.8208 150.6130 0024348  87.5120  91.8114 14.42079625649815"
      },
      "geometry": {
        "type": "Point",
        "coordinates": [
          -129.80518578568214,
          -79.9737401669721
        ]
      }
    },
    {
      "type": "Feature",
      "properties": {
        "norad_id": 31742,
        "name": "FENGYUN 1C DEB",
        "group": "fengyun-1c-debris",
        "lat": 61.0194406757862,
        "lon": -175.65701098487804,
        "alt_km": 740.2479784359075,
        "timestamp": "2025-12-07T05:38:10.187966+00:00",
        "meta_object_name": "FENGYUN 1C DEB",
        "meta_object_id": "1999-025CER",
        "meta_epoch": "2025-12-05T08:19:03.614304",
        "meta_mean_motion": 14.39743803,
        "meta_eccentricity": 0.00769286,
        "meta_inclination": 98.9199,
        "meta_ra_of_asc_node": 198.8506,
        "meta_arg_of_pericenter": 351.2957,
        "meta_mean_anomaly": 8.689,
        "meta_ephemeris_type": 0,
        "meta_classification_type": "U",
        "meta_norad_cat_id": 31742,
        "meta_element_set_no": 999,
        "meta_rev_at_epoch": 96543,
        "meta_bstar": 0.001271349,
        "meta_mean_motion_dot": 4.077e-05,
        "meta_mean_motion_ddot": 0,
        "tle_line1": "1 31742U 99025CER 25339.34656961  .00004077  00000+0  12713-2 0  9997",
        "tle_line2": "2 31742  98.9199 198.8506 0076928 351.2957   8.6890 14.39743803965435"
      },
      "geometry": {
        "type": "Point",
        "coordinates": [
          -175.65701098487804,
          61.0194406757862
        ]
      }
    },
    {
      "type": "Feature",
      "properties": {
        "norad_id": 31743,
        "name": "FENGYUN 1C DEB",
        "group": "fengyun-1c-debris",
        "lat": -46.233720041940046,
        "lon": -81.45521917996727,
        "alt_km": 788.3882468553338,
        "timestamp": "2025-12-07T05:38:10.187977+00:00",
        "meta_object_name": "FENGYUN 1C DEB",
        "meta_object_id": "1999-025CES",
        "meta_epoch": "2025-12-06T07:05:56.616288",
        "meta_mean_motion": 14.31211042,
        "meta_eccentricity": 0.00374855,
        "meta_inclination": 99.1422,
        "meta_ra_of_asc_node": 267.8786,
        "meta_arg_of_pericenter": 238.4145,
        "meta_mean_anomaly": 278.6334,
        "meta_ephemeris_type": 0,
        "meta_classification_type": "U",
        "meta_norad_cat_id": 31743,
        "meta_element_set_no": 999,
        "meta_rev_at_epoch": 95548,
        "meta_bstar": 0.0031337398,
        "meta_mean_motion_dot": 8.304e-05,
        "meta_mean_motion_ddot": 0,
        "tle_line1": "1 31743U 99025CES 25340.29579417  .00008304  00000+0  31337-2 0  9994",
        "tle_line2": "2 31743  99.1422 267.8786 0037485 238.4145 278.6334 14.31211042955488"
      },
      "geometry": {
        "type": "Point",
        "coordinates": [
          -81.45521917996727,
          -46.233720041940046
        ]
      }
    },
    {
      "type": "Feature",
      "properties": {
        "norad_id": 31744,
        "name": "FENGYUN 1C DEB",
        "group": "fengyun-1c-debris",
        "lat": -20.616450840985358,
        "lon": -91.58783637450982,
        "alt_km": 1016.1778170637253,
        "timestamp": "2025-12-07T05:38:10.187987+00:00",
        "meta_object_name": "FENGYUN 1C DEB",
        "meta_object_id": "1999-025CET",
        "meta_epoch": "2025-12-04T13:59:28.410144",
        "meta_mean_motion": 14.16423838,
        "meta_eccentricity": 0.0316256,
        "meta_inclination": 99.3063,
        "meta_ra_of_asc_node": 89.1727,
        "meta_arg_of_pericenter": 67.4972,
        "meta_mean_anomaly": 295.9356,
        "meta_ephemeris_type": 0,
        "meta_classification_type": "U",
        "meta_norad_cat_id": 31744,
        "meta_element_set_no": 999,
        "meta_rev_at_epoch": 94499,
        "meta_bstar": 0.0032306,
        "meta_mean_motion_dot": 0.00010446,
        "meta_mean_motion_ddot": 0,
        "tle_line1": "1 31744U 99025CET 25338.58296771  .00010446  00000+0  32306-2 0  9990",
        "tle_line2": "2 31744  99.3063  89.1727 0316256  67.4972 295.9356 14.16423838944997"
      },
      "geometry": {
        "type": "Point",
        "coordinates": [
          -91.58783637450982,
          -20.616450840985358
        ]
      }
    }
  ]
}